OBJECT_NAME,OBJECT_ID,EPOCH,MEAN_MOTION,ECCENTRICITY,INCLINATION,RA_OF_ASC_NODE,ARG_OF_PERICENTER,MEAN_ANOMALY,EPHEMERIS_TYPE,CLASSIFICATION_TYPE,NORAD_CAT_ID,ELEMENT_SET_NO,REV_AT_EPOCH,BSTAR,MEAN_MOTION_DOT,MEAN_MOTION_DDOT
SHIJIAN-17 (SJ-17),2016-065A,2026-06-30T18:31:20.984160,0.99860394,.0002242,5.7854,72.4442,32.9051,306.8431,0,U,41838,999,3533,0,.13E-5,0
GOES 16,2016-071A,2026-06-30T16:59:54.160800,1.00272105,.0000594,0.3732,85.5219,21.9495,321.5863,0,U,41866,999,3523,0,-.81E-6,0
TIANLIAN 1-04,2016-072A,2026-06-30T18:20:14.548992,1.00274429,.0043061,0.9032,82.8341,90.4090,197.4670,0,U,41869,999,3543,0,.41E-6,0
WGS F8 (USA 272),2016-075A,2026-06-30T09:42:38.793024,1.00266774,.00002235,0.0483,59.1040,148.1005,6.7973,0,U,41879,999,3495,0,0,0
FENGYUN 4A,2016-077A,2026-06-30T19:47:51.171648,1.00277086,.000792,2.3560,80.1415,158.0711,101.3415,0,U,41882,999,3506,0,-.348E-5,0
ECHOSTAR 19,2016-079A,2026-06-29T20:06:55.891296,1.00274001,.00015291,0.0185,24.7623,76.8617,20.9216,0,U,41893,999,3483,0,-.128E-5,0
JCSAT-110A (JCSAT-15),2016-082A,2026-06-30T18:01:16.367232,1.00270264,.0000864,0.0186,14.9478,91.3805,192.8726,0,U,41903,999,3489,0,-.34E-5,0
STAR ONE D1,2016-082B,2026-06-30T18:48:26.844192,1.00272047,.0002475,0.0026,359.1004,117.9724,359.8897,0,U,41904,999,3491,0,-.2E-5,0
TJS-2,2017-001A,2026-06-30T19:31:30.237888,1.00272925,.000084,0.8669,85.1672,50.9456,142.1861,0,U,41911,999,3485,0,.3E-7,0
SBIRS GEO-4 (USA 273),2017-004A,2026-06-30T19:18:30.007008,1.00286461,.0003049,2.2677,43.6283,56.0725,129.8049,0,U,41937,999,3473,0,.135E-5,0
HISPASAT 36W-1,2017-006A,2026-06-30T03:38:19.550688,1.00273083,.00010925,0.0131,279.7540,170.7506,206.3040,0,U,41942,999,3437,0,-.233E-5,0
TELKOM 3S,2017-007A,2026-06-30T07:47:37.516992,1.00271221,.00025186,0.0230,76.9567,24.0057,52.3441,0,U,41944,999,3427,0,-.352E-5,0
INTELSAT 32E (IS-32E),2017-007B,2026-06-29T12:12:28.637856,1.00268307,.0000889,0.0243,13.6582,344.8527,59.0307,0,U,41945,999,3434,0,0,0
ECHOSTAR 23,2017-014A,2026-06-30T12:14:42.429984,1.00271838,.0001947,0.0179,6.8407,92.9822,252.5352,0,U,42070,999,3405,0,-.47E-6,0
WGS F9 (USA 275),2017-016A,2026-06-30T17:26:31.731360,1.00271560,.0000353,0.0263,4.3617,59.6061,104.4754,0,U,42075,999,3403,0,0,0
SES-10,2017-017A,2026-06-30T13:45:29.664000,1.00269215,.0003032,0.0180,36.9617,66.4201,314.7290,0,U,42432,999,3388,0,-.262E-5,0
CHINASAT 16 (SJ-13),2017-018A,2026-06-30T02:37:21.991584,1.00274688,.00037559,0.0947,90.2461,122.3355,215.4609,0,U,42662,999,3387,0,-.342E-5,0
KOREASAT 7,2017-023A,2026-06-30T07:47:00.077280,1.00269987,.0000574,0.0280,37.9037,56.5355,56.5997,0,U,42691,999,3350,0,-.351E-5,0
SGDC,2017-023B,2026-06-30T10:25:27.509088,1.00271873,.0002813,0.0310,68.2420,36.7838,255.0007,0,U,42692,999,3354,0,-.239E-5,0
GSAT-9,2017-024A,2026-06-30T19:49:21.525312,1.00273402,.0002093,0.0507,89.7588,20.3349,203.4444,0,U,42695,999,3343,0,-.276E-5,0
INMARSAT 5-F4,2017-025A,2026-06-30T17:46:00.477120,1.00267741,.0000221,0.0264,35.0331,87.5691,119.2130,0,U,42698,999,3341,0,0,0
SES-15,2017-026A,2026-06-30T16:53:02.318784,1.00268794,.0000736,0.0216,335.7797,110.5888,316.4941,0,U,42709,999,756,0,.71E-6,0
QZS-2 (MICHIBIKI-2),2017-028A,2026-06-30T11:22:28.547328,1.00280487,.07588097,39.4073,242.9582,269.4153,78.9182,0,U,42738,999,775,0,-.114E-5,0
VIASAT-2,2017-029A,2026-06-29T13:47:26.255616,1.00273030,.00005004,0.0183,302.2304,140.7256,331.6830,0,U,42740,999,3332,0,-.254E-5,0
EUTELSAT 172B,2017-029B,2026-06-30T04:17:38.514336,1.00271687,.00002941,0.0252,116.7170,329.0047,68.9428,0,U,42741,999,3387,0,.5E-7,0
GSAT-19,2017-031A,2026-06-30T19:26:09.565152,1.00272883,.0007041,0.0218,41.2486,38.7217,178.3146,0,U,42747,999,3328,0,0,0
ECHOSTAR 21,2017-032A,2026-06-30T12:24:49.023648,1.00274394,.0002581,1.7698,356.5504,95.1200,23.4050,0,U,42749,999,3323,0,.78E-6,0
BULGARIASAT-1,2017-038A,2026-06-30T19:13:08.021856,1.00270696,.0003006,0.0379,74.3960,30.6001,104.0422,0,U,42801,999,3298,0,.21E-6,0
HELLAS-SAT 3,2017-040A,2026-06-30T17:41:00.956832,1.00271352,.0004193,0.0473,44.6365,18.3370,160.0728,0,U,42814,999,3294,0,.163E-5,0
GSAT-17,2017-040B,2026-06-30T19:49:21.525312,1.00271258,.0001349,0.0383,86.5577,197.5351,25.6402,0,U,42815,999,3292,0,-.247E-5,0
INTELSAT 35E (IS-35E),2017-041A,2026-06-30T19:02:44.087712,1.00267453,.0002308,0.0224,23.6594,75.9559,70.4225,0,U,42818,999,3295,0,0,0
COSMOS 2520,2017-046A,2026-06-30T04:01:24.838176,1.00265800,.0000635,0.0418,103.8071,23.8418,255.9278,0,U,42907,999,3252,0,.148E-5,0
