SHIJIAN-17 (SJ-17)      
1 41838U 16065A   26181.77177065  .00000130  00000+0  00000+0 0  9992
2 41838   5.7854  72.4442 0002242  32.9051 306.8431  0.99860394 35335
GOES 16                 
1 41866U 16071A   26181.70826575 -.00000081  00000+0  00000+0 0  9996
2 41866   0.3732  85.5219 0000594  21.9495 321.5863  1.00272105 35239
TIANLIAN 1-04           
1 41869U 16072A   26181.76405728  .00000041  00000+0  00000+0 0  9994
2 41869   0.9032  82.8341 0043061  90.4090 197.4670  1.00274429 35434
WGS F8 (USA 272)        
1 41879U 16075A   26181.40461566  .00000000  00000+0  00000+0 0  9996
2 41879   0.0483  59.1040 0000223 148.1005   6.7973  1.00266774 34957
FENGYUN 4A              
1 41882U 16077A   26181.82489782 -.00000348  00000+0  00000+0 0  9994
2 41882   2.3560  80.1415 0007920 158.0711 101.3415  1.00277086 35061
ECHOSTAR 19             
1 41893U 16079A   26180.83814689 -.00000128  00000+0  00000+0 0  9992
2 41893   0.0185  24.7623 0001529  76.8617  20.9216  1.00274001 34830
JCSAT-110A (JCSAT-15)   
1 41903U 16082A   26181.75088388 -.00000340  00000+0  00000+0 0  9995
2 41903   0.0186  14.9478 0000864  91.3805 192.8726  1.00270264 34892
STAR ONE D1             
1 41904U 16082B   26181.78364403 -.00000200  00000+0  00000+0 0  9999
2 41904   0.0026 359.1004 0002475 117.9724 359.8897  1.00272047 34918
TJS-2                   
1 41911U 17001A   26181.81354442  .00000003  00000+0  00000+0 0  9995
2 41911   0.8669  85.1672 0000840  50.9456 142.1861  1.00272925 34858
SBIRS GEO-4 (USA 273)   
1 41937U 17004A   26181.80451397  .00000135  00000+0  00000+0 0  9998
2 41937   2.2677  43.6283 0003049  56.0725 129.8049  1.00286461 34735
HISPASAT 36W-1          
1 41942U 17006A   26181.15161517 -.00000233  00000+0  00000+0 0  9996
2 41942   0.0131 279.7540 0001092 170.7506 206.3040  1.00273083 34375
TELKOM 3S               
1 41944U 17007A   26181.32473978 -.00000352  00000+0  00000+0 0  9997
2 41944   0.0230  76.9567 0002518  24.0057  52.3441  1.00271221 34274
INTELSAT 32E (IS-32E)   
1 41945U 17007B   26180.50866479  .00000000  00000+0  00000+0 0  9998
2 41945   0.0243  13.6582 0000889 344.8527  59.0307  1.00268307 34342
ECHOSTAR 23             
1 42070U 17014A   26181.51021331 -.00000047  00000+0  00000+0 0  9990
2 42070   0.0179   6.8407 0001947  92.9822 252.5352  1.00271838 34056
WGS F9 (USA 275)        
1 42075U 17016A   26181.72675615  .00000000  00000+0  00000+0 0  9998
2 42075   0.0263   4.3617 0000353  59.6061 104.4754  1.00271560 34037
SES-10                  
1 42432U 17017A   26181.57326000 -.00000262  00000+0  00000+0 0  9991
2 42432   0.0180  36.9617 0003032  66.4201 314.7290  1.00269215 33889
CHINASAT 16 (SJ-13)     
1 42662U 17018A   26181.10928231 -.00000342  00000+0  00000+0 0  9999
2 42662   0.0947  90.2461 0003755 122.3355 215.4609  1.00274688 33879
KOREASAT 7              
1 42691U 17023A   26181.32430645 -.00000351  00000+0  00000+0 0  9998
2 42691   0.0280  37.9037 0000574  56.5355  56.5997  1.00269987 33502
SGDC                    
1 42692U 17023B   26181.43434617 -.00000239  00000+0  00000+0 0  9999
2 42692   0.0310  68.2420 0002813  36.7838 255.0007  1.00271873 33543
GSAT-9                  
1 42695U 17024A   26181.82594358 -.00000276  00000+0  00000+0 0  9996
2 42695   0.0507  89.7588 0002093  20.3349 203.4444  1.00273402 33433
INMARSAT 5-F4           
1 42698U 17025A   26181.74028330  .00000000  00000+0  00000+0 0  9997
2 42698   0.0264  35.0331 0000221  87.5691 119.2130  1.00267741 33415
SES-15                  
1 42709U 17026A   26181.70349906  .00000071  00000+0  00000+0 0  9990
2 42709   0.0216 335.7797 0000736 110.5888 316.4941  1.00268794  7564
QZS-2 (MICHIBIKI-2)     
1 42738U 17028A   26181.47394152 -.00000114  00000+0  00000+0 0  9990
2 42738  39.4073 242.9582 0758809 269.4153  78.9182  1.00280487  7755
VIASAT-2                
1 42740U 17029A   26180.57460944 -.00000254  00000+0  00000+0 0  9992
2 42740   0.0183 302.2304 0000500 140.7256 331.6830  1.00273030 33326
EUTELSAT 172B           
1 42741U 17029B   26181.17891799  .00000005  00000+0  00000+0 0  9999
2 42741   0.0252 116.7170 0000294 329.0047  68.9428  1.00271687 33872
GSAT-19                 
1 42747U 17031A   26181.80983293  .00000000  00000+0  00000+0 0  9994
2 42747   0.0218  41.2486 0007041  38.7217 178.3146  1.00272883 33289
ECHOSTAR 21             
1 42749U 17032A   26181.51723407  .00000078  00000+0  00000+0 0  9999
2 42749   1.7698 356.5504 0002581  95.1200  23.4050  1.00274394 33235
BULGARIASAT-1           
1 42801U 17038A   26181.80078729  .00000021  00000+0  00000+0 0  9994
2 42801   0.0379  74.3960 0003006  30.6001 104.0422  1.00270696 32980
HELLAS-SAT 3            
1 42814U 17040A   26181.73681663  .00000163  00000+0  00000+0 0  9997
2 42814   0.0473  44.6365 0004193  18.3370 160.0728  1.00271352 32945
GSAT-17                 
1 42815U 17040B   26181.82594358 -.00000247  00000+0  00000+0 0  9996
2 42815   0.0383  86.5577 0001349 197.5351  25.6402  1.00271258 32923
INTELSAT 35E (IS-35E)   
1 42818U 17041A   26181.79356583  .00000000  00000+0  00000+0 0  9998
2 42818   0.0224  23.6594 0002308  75.9559  70.4225  1.00267453 32952
COSMOS 2520             
1 42907U 17046A   26181.16764859  .00000148  00000+0  00000+0 0  9995
2 42907   0.0418 103.8071 0000635  23.8418 255.9278  1.00265800 32529
